{
  "type": "FeatureCollection",
  "features": [
    {
      "type": "Feature",
      "properties": {
        "norad_id": 33412,
        "name": "COSMO-SKYMED 3",
        "group": "resource",
        "lat": -5.605348768305228,
        "lon": -149.4588613270311,
        "alt_km": 562.5039919436495,
        "timestamp": "2025-12-25T03:55:55.962936+00:00",
        "meta_object_name": "COSMO-SKYMED 3",
        "meta_object_id": "2008-054A",
        "meta_epoch": "2025-12-24T19:58:52.970592",
        "meta_mean_motion": 15.05460006,
        "meta_eccentricity": 0.0017132,
        "meta_inclination": 97.8454,
        "meta_ra_of_asc_node": 209.429,
        "meta_arg_of_pericenter": 132.5208,
        "meta_mean_anomaly": 227.7469,
        "meta_ephemeris_type": 0,
        "meta_classification_type": "U",
        "meta_norad_cat_id": 33412,
        "meta_element_set_no": 999,
        "meta_rev_at_epoch": 93069,
        "meta_bstar": 0.0004295,
        "meta_mean_motion_dot": 6.126e-05,
        "meta_mean_motion_ddot": 0,
        "tle_line1": "1 33412U 08054A   25358.83255753  .00006126  00000+0  42950-3 0  9998",
        "tle_line2": "2 33412  97.8454 209.4290 0017132 132.5208 227.7469 15.05460006930694"
      },
      "geometry": {
        "type": "Point",
        "coordinates": [
          -149.4588613270311,
          -5.605348768305228
        ]
      }
    },
    {
      "type": "Feature",
      "properties": {
        "norad_id": 33446,
        "name": "YAOGAN-4",
        "group": "resource",
        "lat": 41.203833056823036,
        "lon": -77.85864702203114,
        "alt_km": 622.358050273273,
        "timestamp": "2025-12-25T03:55:55.962947+00:00",
        "meta_object_name": "YAOGAN-4",
        "meta_object_id": "2008-061A",
        "meta_epoch": "2025-12-24T19:38:47.516928",
        "meta_mean_motion": 14.82716251,
        "meta_eccentricity": 0.0012984,
        "meta_inclination": 97.9197,
        "meta_ra_of_asc_node": 288.8002,
        "meta_arg_of_pericenter": 280.4799,
        "meta_mean_anomaly": 79.4951,
        "meta_ephemeris_type": 0,
        "meta_classification_type": "U",
        "meta_norad_cat_id": 33446,
        "meta_element_set_no": 999,
        "meta_rev_at_epoch": 91982,
        "meta_bstar": 0.00017083,
        "meta_mean_motion_dot": 1.327e-05,
        "meta_mean_motion_ddot": 0,
        "tle_line1": "1 33446U 08061A   25358.81860552  .00001327  00000+0  17083-3 0  9997",
        "tle_line2": "2 33446  97.9197 288.8002 0012984 280.4799  79.4951 14.82716251919826"
      },
      "geometry": {
        "type": "Point",
        "coordinates": [
          -77.85864702203114,
          41.203833056823036
        ]
      }
    },
    {
      "type": "Feature",
      "properties": {
        "norad_id": 33492,
        "name": "GOSAT (IBUKI)",
        "group": "resource",
        "lat": 42.51199193111423,
        "lon": -64.9254211077673,
        "alt_km": 664.8183335709928,
        "timestamp": "2025-12-25T03:55:55.962957+00:00",
        "meta_object_name": "GOSAT (IBUKI)",
        "meta_object_id": "2009-002A",
        "meta_epoch": "2025-12-24T19:07:43.908672",
        "meta_mean_motion": 14.67547502,
        "meta_eccentricity": 0.0001028,
        "meta_inclination": 98.0771,
        "meta_ra_of_asc_node": 107.2329,
        "meta_arg_of_pericenter": 104.9682,
        "meta_mean_anomaly": 255.1636,
        "meta_ephemeris_type": 0,
        "meta_classification_type": "U",
        "meta_norad_cat_id": 33492,
        "meta_element_set_no": 999,
        "meta_rev_at_epoch": 90588,
        "meta_bstar": 0.00015571,
        "meta_mean_motion_dot": 8.35e-06,
        "meta_mean_motion_ddot": 0,
        "tle_line1": "1 33492U 09002A   25358.79703598  .00000835  00000+0  15571-3 0  9990",
        "tle_line2": "2 33492  98.0771 107.2329 0001028 104.9682 255.1636 14.67547502905889"
      },
      "geometry": {
        "type": "Point",
        "coordinates": [
          -64.9254211077673,
          42.51199193111423
        ]
      }
    },
    {
      "type": "Feature",
      "properties": {
        "norad_id": 35681,
        "name": "DEIMOS-1",
        "group": "resource",
        "lat": -5.725241387130073,
        "lon": -21.589528651307035,
        "alt_km": 650.0001542086229,
        "timestamp": "2025-12-25T03:55:55.962969+00:00",
        "meta_object_name": "DEIMOS-1",
        "meta_object_id": "2009-041A",
        "meta_epoch": "2025-12-24T20:34:50.691360",
        "meta_mean_motion": 14.74969781,
        "meta_eccentricity": 0.000247,
        "meta_inclination": 97.7155,
        "meta_ra_of_asc_node": 158.8973,
        "meta_arg_of_pericenter": 60.6805,
        "meta_mean_anomaly": 299.4651,
        "meta_ephemeris_type": 0,
        "meta_classification_type": "U",
        "meta_norad_cat_id": 35681,
        "meta_element_set_no": 999,
        "meta_rev_at_epoch": 88118,
        "meta_bstar": 8.8991e-05,
        "meta_mean_motion_dot": 5.51e-06,
        "meta_mean_motion_ddot": 0,
        "tle_line1": "1 35681U 09041A   25358.85753115  .00000551  00000+0  88991-4 0  9994",
        "tle_line2": "2 35681  97.7155 158.8973 0002470  60.6805 299.4651 14.74969781881186"
      },
      "geometry": {
        "type": "Point",
        "coordinates": [
          -21.589528651307035,
          -5.725241387130073
        ]
      }
    },
    {
      "type": "Feature",
      "properties": {
        "norad_id": 35682,
        "name": "DUBAISAT-1",
        "group": "resource",
        "lat": 72.57165348090244,
        "lon": -23.79740636291897,
        "alt_km": 645.6048826831075,
        "timestamp": "2025-12-25T03:55:55.962984+00:00",
        "meta_object_name": "DUBAISAT-1",
        "meta_object_id": "2009-041B",
        "meta_epoch": "2025-12-24T19:18:44.364096",
        "meta_mean_motion": 14.74635841,
        "meta_eccentricity": 0.0009274,
        "meta_inclination": 97.9798,
        "meta_ra_of_asc_node": 129.3074,
        "meta_arg_of_pericenter": 271.0818,
        "meta_mean_anomaly": 88.9328,
        "meta_ephemeris_type": 0,
        "meta_classification_type": "U",
        "meta_norad_cat_id": 35682,
        "meta_element_set_no": 999,
        "meta_rev_at_epoch": 87939,
        "meta_bstar": 0.00019946,
        "meta_mean_motion_dot": 1.281e-05,
        "meta_mean_motion_ddot": 0,
        "tle_line1": "1 35682U 09041B   25358.80468014  .00001281  00000+0  19946-3 0  9995",
        "tle_line2": "2 35682  97.9798 129.3074 0009274 271.0818  88.9328 14.74635841879397"
      },
      "geometry": {
        "type": "Point",
        "coordinates": [
          -23.79740636291897,
          72.57165348090244
        ]
      }
    },
    {
      "type": "Feature",
      "properties": {
        "norad_id": 35931,
        "name": "OCEANSAT-2",
        "group": "resource",
        "lat": 6.273168276452822,
        "lon": 179.41438167795351,
        "alt_km": 908.0974682779861,
        "timestamp": "2025-12-25T03:55:55.962995+00:00",
        "meta_object_name": "OCEANSAT-2",
        "meta_object_id": "2009-051A",
        "meta_epoch": "2025-12-24T21:57:32.455872",
        "meta_mean_motion": 13.99622883,
        "meta_eccentricity": 0.0015899,
        "meta_inclination": 98.2218,
        "meta_ra_of_asc_node": 358.2801,
        "meta_arg_of_pericenter": 13.0318,
        "meta_mean_anomaly": 347.1257,
        "meta_ephemeris_type": 0,
        "meta_classification_type": "U",
        "meta_norad_cat_id": 35931,
        "meta_element_set_no": 999,
        "meta_rev_at_epoch": 85495,
        "meta_bstar": 3.6407e-06,
        "meta_mean_motion_dot": -3.2e-07,
        "meta_mean_motion_ddot": 0,
        "tle_line1": "1 35931U 09051A   25358.91495898 -.00000032  00000+0  36407-5 0  9992",
        "tle_line2": "2 35931  98.2218 358.2801 0015899  13.0318 347.1257 13.99622883854959"
      },
      "geometry": {
        "type": "Point",
        "coordinates": [
          179.41438167795351,
          6.273168276452822
        ]
      }
    },
    {
      "type": "Feature",
      "properties": {
        "norad_id": 35946,
        "name": "WORLDVIEW-2 (WV-2)",
        "group": "resource",
        "lat": -16.92756058018537,
        "lon": -112.52397676300068,
        "alt_km": 773.9920694224857,
        "timestamp": "2025-12-25T03:55:55.963006+00:00",
        "meta_object_name": "WORLDVIEW-2 (WV-2)",
        "meta_object_id": "2009-055A",
        "meta_epoch": "2025-12-24T18:40:03.691200",
        "meta_mean_motion": 14.37729203,
        "meta_eccentricity": 0.0004734,
        "meta_inclination": 98.4773,
        "meta_ra_of_asc_node": 69.697,
        "meta_arg_of_pericenter": 40.974,
        "meta_mean_anomaly": 319.1802,
        "meta_ephemeris_type": 0,
        "meta_classification_type": "U",
        "meta_norad_cat_id": 35946,
        "meta_element_set_no": 999,
        "meta_rev_at_epoch": 85058,
        "meta_bstar": 7.2199e-05,
        "meta_mean_motion_dot": 1.74e-06,
        "meta_mean_motion_ddot": 0,
        "tle_line1": "1 35946U 09055A   25358.77782050  .00000174  00000+0  72199-4 0  9998",
        "tle_line2": "2 35946  98.4773  69.6970 0004734  40.9740 319.1802 14.37729203850584"
      },
      "geometry": {
        "type": "Point",
        "coordinates": [
          -112.52397676300068,
          -16.92756058018537
        ]
      }
    }
  ]
}